{
    "links": {
        "self": "http://www.neowsapp.com/rest/v1/neo/3792463?api_key=iIulBulltgU6a56xZRHN4H3l9WmuAYTsLGpBGhQ2"
    },
    "id": "3792463",
    "neo_reference_id": "3792463",
    "name": "(2017 XA62)",
    "designation": "2017 XA62",
    "nasa_jpl_url": "http://ssd.jpl.nasa.gov/sbdb.cgi?sstr=3792463",
    "absolute_magnitude_h": 26.4,
    "estimated_diameter": {
        "kilometers": {
            "estimated_diameter_min": 0.0139493823,
            "estimated_diameter_max": 0.0311917671
        },
        "meters": {
            "estimated_diameter_min": 13.9493822934,
            "estimated_diameter_max": 31.1917670523
        },
        "miles": {
            "estimated_diameter_min": 0.0086677416,
            "estimated_diameter_max": 0.0193816595
        },
        "feet": {
            "estimated_diameter_min": 45.7656914036,
            "estimated_diameter_max": 102.3351970157
        }
    },
    "is_potentially_hazardous_asteroid": false,
    "close_approach_data": [
        {
            "close_approach_date": "2017-12-09",
            "close_approach_date_full": "2017-Dec-09 04:27",
            "epoch_date_close_approach": 1512793620000,
            "relative_velocity": {
                "kilometers_per_second": "6.8799284304",
                "kilometers_per_hour": "24767.7423494463",
                "miles_per_hour": "15389.7119059657"
            },
            "miss_distance": {
                "astronomical": "0.0558297199",
                "lunar": "21.7177610411",
                "kilometers": "8352007.179736613",
                "miles": "5189696.6120587394"
            },
            "orbiting_body": "Earth"
        }
    ],
    "orbital_data": {
        "orbit_id": "2",
        "orbit_determination_date": "2017-12-23 06:24:40",
        "first_observation_date": "2017-12-14",
        "last_observation_date": "2017-12-23",
        "data_arc_in_days": 9,
        "observations_used": 26,
        "orbit_uncertainty": "8",
        "minimum_orbit_intersection": ".027161",
        "jupiter_tisserand_invariant": "3.841",
        "epoch_osculation": "2458103.5",
        "eccentricity": ".4600841386871733",
        "semi_major_axis": "1.875088788855616",
        "inclination": "1.351565467748711",
        "ascending_node_longitude": "268.7034045821592",
        "orbital_period": "937.8452489301264",
        "perihelion_distance": "1.012390178473005",
        "perihelion_argument": "149.5245670706644",
        "aphelion_distance": "2.737787399238226",
        "perihelion_time": "2458082.295224297987",
        "mean_anomaly": "8.139636322125705",
        "mean_motion": ".3838586380969358",
        "equinox": "J2000",
        "orbit_class": {
            "orbit_class_type": "APO",
            "orbit_class_description": "Near-Earth asteroid orbits which cross the Earth’s orbit similar to that of 1862 Apollo",
            "orbit_class_range": "a (semi-major axis) > 1.0 AU; q (perihelion) < 1.017 AU"
        }
    },
    "is_sentry_object": false
}